ATLAS CENTAUR 2         
1 00694U 63047A   25335.83268414  .00003823  00000+0  45637-3 0  9996
2 00694  30.3590  22.3759 0549429 298.0984  56.5131 14.11658116117781
THOR AGENA D R/B        
1 00733U 64002A   25335.97675686  .00000307  00000+0  12672-3 0  9997
2 00733  99.1219 339.0135 0032857 181.3285 178.7815 14.33949202224296
SL-3 R/B                
1 00877U 64053B   25336.16969814  .00000539  00000+0  12925-3 0  9991
2 00877  65.0770 257.1159 0072938 323.8857  35.7328 14.61258235252547
SL-8 R/B                
1 02802U 67045B   25335.99643120  .00000374  00000+0  11111-3 0  9997
2 02802  74.0092 170.5232 0064816 202.3165 157.5171 14.45521113 74904
SL-8 R/B                
1 03230U 68040B   25335.98666773  .00004323  00000+0  32722-3 0  9996
2 03230  74.0297 153.2038 0024724 357.1185   2.9856 15.02407241 75334
OAO 2                   
1 03597U 68110A   25336.02531551  .00000342  00000+0  97467-4 0  9996
2 03597  34.9930  90.4730 0005034 138.6819 221.4253 14.47232244  4944
ISIS 1                  
1 03669U 69009A   25335.99618506  .00000233  00000+0  17034-3 0  9995
2 03669  88.4488 165.9715 1706908 286.4133  55.6581 11.30347216337492
SERT 2                  
1 04327U 70009A   25336.11925337  .00000030  00000+0  97475-4 0  9990
2 04327  99.2634 279.6132 0005624  58.2858 312.4724 13.58715469766645
SL-3 R/B                
1 05118U 71028B   25336.11564564  .00031550  00000+0  48920-3 0  9993
2 05118  81.2375 171.8271 0019631 279.1910  80.7119 15.53617825973489
ASTEX 1                 
1 05560U 71089A   25336.15103947  .00000742  00000+0  18916-3 0  9990
2 05560  92.7133 120.1936 0017472  58.6218 301.6694 14.50620588848161
SL-8 R/B                
1 05730U 71119B   25336.16443444  .00011911  00000+0  62479-3 0  9996
2 05730  73.8890 357.6962 0560354 344.0955  14.3192 14.35377522641485
OAO 3 (COPERNICUS)      
1 06153U 72065A   25335.72605645  .00000434  00000+0  93574-4 0  9990
2 06153  35.0040 135.4055 0005951  77.0446 299.9744 14.59889533831876
