CCSDS_OMM_VERS = 2.0
CREATION_DATE  = 
ORIGINATOR     = 

OBJECT_NAME    = ATLAS CENTAUR 2
OBJECT_ID      = 1963-047A
CENTER_NAME    = EARTH
REF_FRAME      = TEME
TIME_SYSTEM    = UTC
MEAN_ELEMENT_THEORY = SGP/SGP4

EPOCH          = 2025-12-01T19:59:03.909696
MEAN_MOTION    = 14.11658116
ECCENTRICITY   = .0549429
INCLINATION    = 30.3590
RA_OF_ASC_NODE = 22.3759
ARG_OF_PERICENTER = 298.0984
MEAN_ANOMALY   = 56.5131

EPHEMERIS_TYPE = 0
CLASSIFICATION_TYPE = U
NORAD_CAT_ID   = 694
ELEMENT_SET_NO = 999
REV_AT_EPOCH   = 11778
BSTAR          = .45637E-3
MEAN_MOTION_DOT = .3823E-4
MEAN_MOTION_DDOT = 0

CCSDS_OMM_VERS = 2.0
CREATION_DATE  = 
ORIGINATOR     = 

OBJECT_NAME    = THOR AGENA D R/B
OBJECT_ID      = 1964-002A
CENTER_NAME    = EARTH
REF_FRAME      = TEME
TIME_SYSTEM    = UTC
MEAN_ELEMENT_THEORY = SGP/SGP4

EPOCH          = 2025-12-01T23:26:31.792704
MEAN_MOTION    = 14.33949202
ECCENTRICITY   = .0032857
INCLINATION    = 99.1219
RA_OF_ASC_NODE = 339.0135
ARG_OF_PERICENTER = 181.3285
MEAN_ANOMALY   = 178.7815

EPHEMERIS_TYPE = 0
CLASSIFICATION_TYPE = U
NORAD_CAT_ID   = 733
ELEMENT_SET_NO = 999
REV_AT_EPOCH   = 22429
BSTAR          = .12672E-3
MEAN_MOTION_DOT = .307E-5
MEAN_MOTION_DDOT = 0

CCSDS_OMM_VERS = 2.0
CREATION_DATE  = 
ORIGINATOR     = 

OBJECT_NAME    = SL-3 R/B
OBJECT_ID      = 1964-053B
CENTER_NAME    = EARTH
REF_FRAME      = TEME
TIME_SYSTEM    = UTC
MEAN_ELEMENT_THEORY = SGP/SGP4

EPOCH          = 2025-12-02T04:04:21.919296
MEAN_MOTION    = 14.61258235
ECCENTRICITY   = .0072938
INCLINATION    = 65.0770
RA_OF_ASC_NODE = 257.1159
ARG_OF_PERICENTER = 323.8857
MEAN_ANOMALY   = 35.7328

EPHEMERIS_TYPE = 0
CLASSIFICATION_TYPE = U
NORAD_CAT_ID   = 877
ELEMENT_SET_NO = 999
REV_AT_EPOCH   = 25254
BSTAR          = .12925E-3
MEAN_MOTION_DOT = .539E-5
MEAN_MOTION_DDOT = 0

CCSDS_OMM_VERS = 2.0
CREATION_DATE  = 
ORIGINATOR     = 

OBJECT_NAME    = SL-8 R/B
OBJECT_ID      = 1967-045B
CENTER_NAME    = EARTH
REF_FRAME      = TEME
TIME_SYSTEM    = UTC
MEAN_ELEMENT_THEORY = SGP/SGP4

EPOCH          = 2025-12-01T23:54:51.655680
MEAN_MOTION    = 14.45521113
ECCENTRICITY   = .0064816
INCLINATION    = 74.0092
RA_OF_ASC_NODE = 170.5232
ARG_OF_PERICENTER = 202.3165
MEAN_ANOMALY   = 157.5171

EPHEMERIS_TYPE = 0
CLASSIFICATION_TYPE = U
NORAD_CAT_ID   = 2802
ELEMENT_SET_NO = 999
REV_AT_EPOCH   = 7490
BSTAR          = .11111E-3
MEAN_MOTION_DOT = .374E-5
MEAN_MOTION_DDOT = 0

CCSDS_OMM_VERS = 2.0
CREATION_DATE  = 
ORIGINATOR     = 

OBJECT_NAME    = SL-8 R/B
OBJECT_ID      = 1968-040B
CENTER_NAME    = EARTH
REF_FRAME      = TEME
TIME_SYSTEM    = UTC
MEAN_ELEMENT_THEORY = SGP/SGP4

EPOCH          = 2025-12-01T23:40:48.091872
MEAN_MOTION    = 15.02407241
ECCENTRICITY   = .0024724
INCLINATION    = 74.0297
RA_OF_ASC_NODE = 153.2038
ARG_OF_PERICENTER = 357.1185
MEAN_ANOMALY   = 2.9856

EPHEMERIS_TYPE = 0
CLASSIFICATION_TYPE = U
NORAD_CAT_ID   = 3230
ELEMENT_SET_NO = 999
REV_AT_EPOCH   = 7533
BSTAR          = .32722E-3
MEAN_MOTION_DOT = .4323E-4
MEAN_MOTION_DDOT = 0

CCSDS_OMM_VERS = 2.0
CREATION_DATE  = 
ORIGINATOR     = 

OBJECT_NAME    = OAO 2
OBJECT_ID      = 1968-110A
CENTER_NAME    = EARTH
REF_FRAME      = TEME
TIME_SYSTEM    = UTC
MEAN_ELEMENT_THEORY = SGP/SGP4

EPOCH          = 2025-12-02T00:36:27.260064
MEAN_MOTION    = 14.47232244
ECCENTRICITY   = .0005034
INCLINATION    = 34.9930
RA_OF_ASC_NODE = 90.4730
ARG_OF_PERICENTER = 138.6819
MEAN_ANOMALY   = 221.4253

EPHEMERIS_TYPE = 0
CLASSIFICATION_TYPE = U
NORAD_CAT_ID   = 3597
ELEMENT_SET_NO = 999
REV_AT_EPOCH   = 494
BSTAR          = .97467E-4
MEAN_MOTION_DOT = .342E-5
MEAN_MOTION_DDOT = 0

CCSDS_OMM_VERS = 2.0
CREATION_DATE  = 
ORIGINATOR     = 

OBJECT_NAME    = ISIS 1
OBJECT_ID      = 1969-009A
CENTER_NAME    = EARTH
REF_FRAME      = TEME
TIME_SYSTEM    = UTC
MEAN_ELEMENT_THEORY = SGP/SGP4

EPOCH          = 2025-12-01T23:54:30.389184
MEAN_MOTION    = 11.30347216
ECCENTRICITY   = .1706908
INCLINATION    = 88.4488
RA_OF_ASC_NODE = 165.9715
ARG_OF_PERICENTER = 286.4133
MEAN_ANOMALY   = 55.6581

EPHEMERIS_TYPE = 0
CLASSIFICATION_TYPE = U
NORAD_CAT_ID   = 3669
ELEMENT_SET_NO = 999
REV_AT_EPOCH   = 33749
BSTAR          = .17034E-3
MEAN_MOTION_DOT = .233E-5
MEAN_MOTION_DDOT = 0

CCSDS_OMM_VERS = 2.0
CREATION_DATE  = 
ORIGINATOR     = 

OBJECT_NAME    = SERT 2
OBJECT_ID      = 1970-009A
CENTER_NAME    = EARTH
REF_FRAME      = TEME
TIME_SYSTEM    = UTC
MEAN_ELEMENT_THEORY = SGP/SGP4

EPOCH          = 2025-12-02T02:51:43.491168
MEAN_MOTION    = 13.58715469
ECCENTRICITY   = .0005624
INCLINATION    = 99.2634
RA_OF_ASC_NODE = 279.6132
ARG_OF_PERICENTER = 58.2858
MEAN_ANOMALY   = 312.4724

EPHEMERIS_TYPE = 0
CLASSIFICATION_TYPE = U
NORAD_CAT_ID   = 4327
ELEMENT_SET_NO = 999
REV_AT_EPOCH   = 76664
BSTAR          = .97475E-4
MEAN_MOTION_DOT = .3E-6
MEAN_MOTION_DDOT = 0

CCSDS_OMM_VERS = 2.0
CREATION_DATE  = 
ORIGINATOR     = 

OBJECT_NAME    = SL-3 R/B
OBJECT_ID      = 1971-028B
CENTER_NAME    = EARTH
REF_FRAME      = TEME
TIME_SYSTEM    = UTC
MEAN_ELEMENT_THEORY = SGP/SGP4

EPOCH          = 2025-12-02T02:46:31.783296
MEAN_MOTION    = 15.53617825
ECCENTRICITY   = .0019631
INCLINATION    = 81.2375
RA_OF_ASC_NODE = 171.8271
ARG_OF_PERICENTER = 279.1910
MEAN_ANOMALY   = 80.7119

EPHEMERIS_TYPE = 0
CLASSIFICATION_TYPE = U
NORAD_CAT_ID   = 5118
ELEMENT_SET_NO = 999
REV_AT_EPOCH   = 97348
BSTAR          = .4892E-3
MEAN_MOTION_DOT = .3155E-3
MEAN_MOTION_DDOT = 0

CCSDS_OMM_VERS = 2.0
CREATION_DATE  = 
ORIGINATOR     = 

OBJECT_NAME    = ASTEX 1
OBJECT_ID      = 1971-089A
CENTER_NAME    = EARTH
REF_FRAME      = TEME
TIME_SYSTEM    = UTC
MEAN_ELEMENT_THEORY = SGP/SGP4

EPOCH          = 2025-12-02T03:37:29.810208
MEAN_MOTION    = 14.50620588
ECCENTRICITY   = .0017472
INCLINATION    = 92.7133
RA_OF_ASC_NODE = 120.1936
ARG_OF_PERICENTER = 58.6218
MEAN_ANOMALY   = 301.6694

EPHEMERIS_TYPE = 0
CLASSIFICATION_TYPE = U
NORAD_CAT_ID   = 5560
ELEMENT_SET_NO = 999
REV_AT_EPOCH   = 84816
BSTAR          = .18916E-3
MEAN_MOTION_DOT = .742E-5
MEAN_MOTION_DDOT = 0

CCSDS_OMM_VERS = 2.0
CREATION_DATE  = 
ORIGINATOR     = 

OBJECT_NAME    = SL-8 R/B
OBJECT_ID      = 1971-119B
CENTER_NAME    = EARTH
REF_FRAME      = TEME
TIME_SYSTEM    = UTC
MEAN_ELEMENT_THEORY = SGP/SGP4

EPOCH          = 2025-12-02T03:56:47.135616
MEAN_MOTION    = 14.35377522
ECCENTRICITY   = .0560354
INCLINATION    = 73.8890
RA_OF_ASC_NODE = 357.6962
ARG_OF_PERICENTER = 344.0955
MEAN_ANOMALY   = 14.3192

EPHEMERIS_TYPE = 0
CLASSIFICATION_TYPE = U
NORAD_CAT_ID   = 5730
ELEMENT_SET_NO = 999
REV_AT_EPOCH   = 64148
BSTAR          = .62479E-3
MEAN_MOTION_DOT = .11911E-3
MEAN_MOTION_DDOT = 0

CCSDS_OMM_VERS = 2.0
CREATION_DATE  = 
ORIGINATOR     = 

OBJECT_NAME    = OAO 3 (COPERNICUS)
OBJECT_ID      = 1972-065A
CENTER_NAME    = EARTH
REF_FRAME      = TEME
TIME_SYSTEM    = UTC
MEAN_ELEMENT_THEORY = SGP/SGP4

EPOCH          = 2025-12-01T17:25:31.277280
MEAN_MOTION    = 14.59889533
ECCENTRICITY   = .0005951
INCLINATION    = 35.0040
RA_OF_ASC_NODE = 135.4055
ARG_OF_PERICENTER = 77.0446
MEAN_ANOMALY   = 299.9744

EPHEMERIS_TYPE = 0
CLASSIFICATION_TYPE = U
NORAD_CAT_ID   = 6153
ELEMENT_SET_NO = 999
REV_AT_EPOCH   = 83187
BSTAR          = .93574E-4
MEAN_MOTION_DOT = .434E-5
MEAN_MOTION_DDOT = 0

